CLUSTER II-FM8 (TANGO)  
1 26464U 00045B   22001.50047204  .00000482  00000+0  00000+0 0  9990
2 26464 133.4877 346.1923 5281239 196.1240 359.4663  0.44218322 13082
NSS-11 (AAP-1)          
1 26554U 00059A   21365.54350823  .00000038  00000+0  00000+0 0  9992
2 26554   0.0142  29.7719 0002402 253.3218 188.7401  1.00271473 24974
USA 153                 
1 26575U 00065A   21365.53522248 -.00000319  00000+0  00000+0 0  9996
2 26575   8.8180  46.7353 0002125 249.0993 131.4509  1.00273925 16601
AMC-6 (GE-6)            
1 26580U 00067A   21365.55249171  .00000118  00000+0  00000+0 0  9993
2 26580   0.0288 315.7958 0002424 327.8320 236.4468  1.00270997 77592
INTELSAT 1R (IS-1R)     
1 26608U 00072A   21365.39619648 -.00000129  00000+0  00000+0 0  9995
2 26608   4.0166  81.8120 0000949  16.1742 301.7793  1.00272080 24987
ANIK F1                 
1 26624U 00076A   21365.55842257 -.00000049  00000+0  00000+0 0  9990
2 26624   1.0139  94.6983 0001765 174.9769 282.3700  1.00270504 26815
ASTRA 2D                
1 26638U 00081A   21365.22542293  .00000137  00000+0  00000+0 0  9999
2 26638   6.9397  61.4249 0002025 223.0977 280.1798  1.00274263 36577
AMC-8 (GE-8)            
1 26639U 00081B   21365.57734698  .00000099  00000+0  00000+0 0  9997
2 26639   2.0278  90.3879 0002895 187.6689 255.0004  1.00269827 77007
NAVSTAR 50 (USA 156)    
1 26690U 01004A   21365.20640941 -.00000046  00000+0  00000+0 0  9990
2 26690  53.8244  92.9381 0002212 261.2181 100.9415  1.91595162152334
ODIN                    
1 26702U 01007A   21365.59510032  .00001667  00000+0  10959-3 0  9993
2 26702  97.5291  18.4702 0011571 138.7560 221.4545 15.08909318140955
USA 157 (MILSTAR-2 2)   
1 26715U 01009A   21365.19655375  .00000020  00000+0  00000+0 0  9999
2 26715   9.8529  27.9311 0002067 238.2451 140.1269  1.00273781 16626
EUTELSAT 133 WEST A     
1 26719U 01011A   21365.55371278  .00000087  00000+0  00000+0 0  9996
2 26719   3.3032  84.3372 0002812 227.0474 215.2603  1.00270141 76215
BSAT-2A                 
1 26720U 01011B   21365.33496921  .00000039  00000+0  00000+0 0  9994
2 26720   7.2595  60.0809 0003016 197.4756 173.1922  0.99177984 75820
INTELSAT 10 (IS-10)     
1 26766U 01019A   21365.54385709  .00000042  00000+0  00000+0 0  9990
2 26766   5.1830  74.7766 0003391 214.8287 184.1501  1.00272166 29298
INTELSAT 901 (IS-901)   
1 26824U 01024A   21365.08313347 -.00000188  00000+0  00000+0 0  9991
2 26824   0.0150 306.8186 0001182  24.7350 130.5807  1.00265778  6641
ASTRA 2C                
1 26853U 01025A   21365.56574890 -.00000250  00000+0  00000+0 0  9999
2 26853   4.1625  80.8356 0002423 194.9557 315.6137  1.00271849 28711
ICO F2                  
1 26857U 01026A   21364.04190701  .00000005  00000+0  00000+0 0  9998
2 26857  44.8381 260.4794 0017590  11.9734 348.1247  3.92403726141592
USA 159 (DSP 21)        
1 26880U 01033A   21365.43187314 -.00000292  00000+0  00000+0 0  9991
2 26880  11.2738  26.8105 0000599   0.0524 179.4037  1.00278418 16632
INTELSAT 902 (IS-902)   
1 26900U 01039A   21365.49841635 -.00000271  00000+0  00000+0 0  9996
2 26900   1.9865  90.8502 0003170 198.1823 300.4321  1.00271586 74368
PCSAT (NO-44)           
1 26931U 01043C   21365.60329777 -.00000001  00000+0  31523-4 0  9996
2 26931  67.0510 131.6242 0006470 280.7557  79.2816 14.30652149 57394
PROBA-1                 
1 26958U 01049B   21365.55726082  .00000576  00000+0  54345-4 0  9998
2 26958  97.7982 320.8262 0072176 183.1534 176.9233 14.95891365 99375
BIRD 2                  
1 26959U 01049C   21365.45733780  .00005016  00000+0  12570-3 0  9998
2 26959  97.7765  81.4095 0005994 250.4171 109.6428 15.40560662427297
TIMED                   
1 26998U 01055B   21365.15349645  .00000386  00000+0  45601-4 0  9995
2 26998  74.0723 254.8560 0001923 229.0410 131.0605 14.88418245 87963
MAROC-TUBSAT            
1 27004U 01056D   21365.36507021 -.00000034  00000+0  12411-4 0  9996
2 27004  99.5979 140.9975 0019910   8.0529  45.2584 13.70150993  3124
COSMOS 2385             
1 27056U 01058B   21365.43513878  .00000001  00000+0 -54796-4 0  9996
2 27056  82.5359 181.4412 0005386 313.4098  46.6555 12.60515320920732
COSMOS 2386             
1 27057U 01058C   21365.49034298  .00000016  00000+0  32731-4 0  9997
2 27057  82.5423 176.8056 0001226 118.4009 241.7224 12.61562850921486
USA 164 (MILSTAR-2 3)   
1 27168U 02001A   21364.66052517  .00000108  00000+0  00000+0 0  9992
2 27168   9.3313  29.6926 0001851 263.1216  63.2804  1.00269297 15303
RHESSI                  
1 27370U 02004A   21365.28388563  .00009441  00000+0  25429-3 0  9997
2 27370  38.0340 326.0517 0013222 256.3352 103.5948 15.37380839100670
ECHOSTAR 7              
1 27378U 02006A   21365.55650375  .00000014  00000+0  00000+0 0  9991
2 27378   0.0329 309.9057 0001195 324.9294 266.8920  1.00268217 34271
INTELSAT 904 (IS-904)   
1 27380U 02007A   21365.43073494 -.00000203  00000+0  00000+0 0  9994
2 27380   2.8193  87.7147 0002899 205.5211 292.4115  1.00270955 35431
TDRS 9                  
1 27389U 02011A   21365.44188851 -.00000282  00000+0  00000+0 0  9990
2 27389   8.6649  62.3490 0026573 287.7861 206.5364  1.00279616 74111
ASTRA 3A                
1 27400U 02015B   21365.56087027 -.00000197  00000+0  00000+0 0  9999
2 27400   7.0488  60.2622 0001486 213.1310 301.8807  1.00273816 72396
NSS-7                   
1 27414U 02019A   21365.43265375 -.00000150  00000+0  00000+0 0  9997
2 27414   5.5102  72.6715 0002665 219.3377 303.8008  1.00271833 72233
AQUA                    
1 27424U 02022A   21365.47855751  .00000278  00000+0  71806-4 0  9996
2 27424  98.2310 304.1595 0001706  65.8969  49.7631 14.57105700 45726
DIRECTV 5 (TEMPO 1)     
1 27426U 02023A   21365.55824812 -.00000043  00000+0  00000+0 0  9996
2 27426   0.7068  95.1261 0003038 189.9510 265.9656  1.00270973 71797
INTELSAT 905 (IS-905)   
1 27438U 02027A   21365.43178156 -.00000174  00000+0  00000+0 0  9998
2 27438   2.6414  88.4817 0002491 199.8891 302.6300  1.00269940 35036
GALAXY 3C (G-3C)        
1 27445U 02030A   21365.34595872 -.00000137  00000+0  00000+0 0  9997
2 27445   0.0205 319.7874 0002020  12.7322 156.9783  1.00272133 30170
EUTELSAT 5 WEST A       
1 27460U 02035A   21365.29214502 -.00000030  00000+0  00000+0 0  9993
2 27460   1.9032  91.1995 0005565 193.7685 275.1461  1.00271895 71287
COSMOS 2390             
1 27464U 02036A   21365.41339056  .00000034  00000+0  16958-3 0  9990
2 27464  82.4846 283.3295 0024269 220.4380 139.4893 12.44577807885206
COSMOS 2391             
1 27465U 02036B   21365.44868096  .00000029  00000+0  13459-3 0  9992
2 27465  82.4845 280.5077 0025124 216.4355 143.5016 12.44898910885429
METEOSAT-8 (MSG-1)      
1 27509U 02040B   21365.22960949  .00000142  00000+0  00000+0 0  9992
2 27509   7.7288  51.5346 0000336 236.2799 296.1154  1.00273755 70927
INTELSAT 906 (IS-906)   
1 27513U 02041A   21365.52126756  .00000026  00000+0  00000+0 0  9992
2 27513   1.6534  92.4578 0003329 195.7358  63.7327  1.00273049 70695
HISPASAT 30W-4          
1 27528U 02044A   21365.55170675  .00000128  00000+0  00000+0 0  9996
2 27528   2.4245  88.6974 0003496 215.3585 211.7266  1.00273337 26645
INTEGRAL                
1 27540U 02048A   21362.23468955  .00000778  00000+0  00000+0 0  9998
2 27540  70.1513  70.6916 8959086 299.8357  15.8512  0.37587720 20513
TDRS 10                 
1 27566U 02055A   21365.40247619  .00000095  00000+0  00000+0 0  9990
2 27566   7.8979  50.8864 0007016 306.1133  76.7086  1.00274632 69903
NSS-6                   
1 27603U 02057A   21365.54638642  .00000120  00000+0  00000+0 0  9998
2 27603   1.1892  93.5607 0003058 188.5173 205.2481  1.00270417 69717
LATINSAT B              
1 27606U 02058B   21365.57405463  .00000090  00000+0  35420-4 0  9993
2 27606  64.5546 181.3054 0070428 339.6946  20.1356 14.72432341 21973
SAUDISAT 1C (SO-50)     
1 27607U 02058C   21365.55993928  .00000253  00000+0  56117-4 0  9997
2 27607  64.5555  95.5472 0064783 328.6512  31.0734 14.75862107 23599
LATINSAT A              
1 27612U 02058H   21365.31513379  .00000297  00000+0  57966-4 0  9996
2 27612  64.5561 313.9758 0053382 301.2607  58.3274 14.79683073 26200
NIMIQ 2                 
1 27632U 02062A   21365.49876524 -.00000277  00000+0  00000+0 0  9997
2 27632   5.6175  71.8603 0006112 258.5153 260.6978  1.00012070 27851
CORIOLIS                
1 27640U 03001A   21365.58915714  .00000045  00000+0  42534-4 0  9990
2 27640  98.7199  12.2556 0013556 217.2367 250.5546 14.19095724983169
SORCE                   
1 27651U 03004A   21365.59655914  .00000609  00000+0  76727-4 0  9996
2 27651  39.9964  74.3965 0023013  10.4321 349.6942 14.89491606 28035
NAVSTAR 51 (USA 166)    
1 27663U 03005A   21365.54908796 -.00000009  00000+0  00000+0 0  9995
2 27663  55.6292 279.7282 0124243  38.8894 177.0659  2.00574367138638
USA 167                 
1 27691U 03008A   21365.26720059  .00000061  00000+0  00000+0 0  9999
2 27691   7.7145  55.6716 0001495 333.2967  36.9552  1.00273625 16624
NAVSTAR 52 (USA 168)    
1 27704U 03010A   21363.08451844 -.00000057  00000+0  00000+0 0  9994
2 27704  54.9547  30.2107 0246416 300.4379 154.8832  2.00572107137396
USA 169 (MILSTAR-2 4)   
1 27711U 03012A   21365.46693053 -.00000190  00000+0  00000+0 0  9996
2 27711   9.8753  41.3085 0002440 242.8361 136.1511  1.00273885 16626
GALAXY 12 (G-12)        
1 27715U 03013B   21365.55449773  .00000069  00000+0  00000+0 0  9993
2 27715   2.8542  87.2849 0001856 208.0661 235.4512  1.00270717 35764
ASIASAT 4               
1 27718U 03014A   21365.51603446  .00000166  00000+0  00000+0 0  9990
2 27718   0.5485  96.4249 0001887 189.8637  37.8381  1.00272787 28968
HELLAS-SAT 2            
1 27811U 03020A   21365.56400455 -.00000231  00000+0  00000+0 0  9995
2 27811   3.2711  86.3828 0007084 194.8392 300.6839  1.00441789 26512
